{
"type": "FeatureCollection",
"name": "K52318_interim_burn_severity_2023",
"crs": { "type": "name", "properties": { "name": "urn:ogc:def:crs:OGC:1.3:CRS84" } },
"features": [
{ "type": "Feature", "properties": { "FIRE_NUMBER": "K52318", "FIRE_YEAR": 2023, "PRE_FIRE_IMAGE": "S2A_10UGV_20230701_0_L2A", "PRE_FIRE_IMAGE_DATE": "2023-07-01", "POST_FIRE_IMAGE": "S2A_11ULQ_20230916_0_L2A", "POST_FIRE_IMAGE_DATE": "2023-09-16", "COMMENTS": "", "FIRE_STATUS": "", "BURN_SEVERITY_RATING": "Low", "AREA_HA": 0.033185188002403103, "FEATURE_AREA_SQM": 331.851880024031, "FEATURE_LENGTH_M": 74.271613508551638 }, "geometry": { "type": "Polygon", "coordinates": [ [ [ -119.481465200682578, 48.878144362289746 ], [ -119.48119292122044, 48.878136043465496 ], [ -119.481201289984142, 48.878016882472906 ], [ -119.481477773091541, 48.877965332617457 ], [ -119.481465200682578, 48.878144362289746 ] ] ] } },
{ "type": "Feature", "properties": { "FIRE_NUMBER": "K52318", "FIRE_YEAR": 2023, "PRE_FIRE_IMAGE": "S2A_10UGV_20230701_0_L2A", "PRE_FIRE_IMAGE_DATE": "2023-07-01", "POST_FIRE_IMAGE": "S2A_11ULQ_20230916_0_L2A", "POST_FIRE_IMAGE_DATE": "2023-09-16", "COMMENTS": "", "FIRE_STATUS": "", "BURN_SEVERITY_RATING": "Medium", "AREA_HA": 0.18970478614580677, "FEATURE_AREA_SQM": 1897.0478614580677, "FEATURE_LENGTH_M": 199.92595967334887 }, "geometry": { "type": "Polygon", "coordinates": [ [ [ -119.482683028195467, 48.878271588894023 ], [ -119.482651495293197, 48.878720759864407 ], [ -119.482244196069104, 48.87870831984727 ], [ -119.482256810776917, 48.878528651543391 ], [ -119.482119544740215, 48.878524458754271 ], [ -119.482138467302391, 48.878254956322749 ], [ -119.482275732604421, 48.878259149072463 ], [ -119.482282039817804, 48.878169314911482 ], [ -119.482417054659066, 48.87817343875539 ], [ -119.482410747686529, 48.878263272929388 ], [ -119.482548013051471, 48.878267465355449 ], [ -119.482683028195467, 48.878271588894023 ] ] ] } },
{ "type": "Feature", "properties": { "FIRE_NUMBER": "K52318", "FIRE_YEAR": 2023, "PRE_FIRE_IMAGE": "S2A_10UGV_20230701_0_L2A", "PRE_FIRE_IMAGE_DATE": "2023-07-01", "POST_FIRE_IMAGE": "S2A_11ULQ_20230916_0_L2A", "POST_FIRE_IMAGE_DATE": "2023-09-16", "COMMENTS": "", "FIRE_STATUS": "", "BURN_SEVERITY_RATING": "Low", "AREA_HA": 0.15979422468874535, "FEATURE_AREA_SQM": 1597.9422468874534, "FEATURE_LENGTH_M": 279.74595947299736 }, "geometry": { "type": "Polygon", "coordinates": [ [ [ -119.480357151648647, 48.878380585069024 ], [ -119.480350840941384, 48.87847041904093 ], [ -119.480485856312853, 48.878474545164778 ], [ -119.480479545815228, 48.87856437914764 ], [ -119.48061681171923, 48.878568573891599 ], [ -119.48062943219351, 48.878388905897481 ], [ -119.480764447386022, 48.878393031689988 ], [ -119.480770757335421, 48.878303197677013 ], [ -119.480908022567746, 48.878307392057778 ], [ -119.480914332241042, 48.878217558029462 ], [ -119.481049347013723, 48.878221683477925 ], [ -119.481030418622694, 48.878491185595479 ], [ -119.48089540312742, 48.878487060108235 ], [ -119.480889093360403, 48.878576894130397 ], [ -119.481024109096566, 48.878581019630609 ], [ -119.481017799539188, 48.878670853663735 ], [ -119.48033821943315, 48.878650086978659 ], [ -119.480344530202899, 48.878560253010818 ], [ -119.480207264361823, 48.878556057943278 ], [ -119.480219827991078, 48.878377219996338 ], [ -119.48022112401253, 48.878376427855173 ], [ -119.480357151648647, 48.878380585069024 ] ] ] } },
{ "type": "Feature", "properties": { "FIRE_NUMBER": "K52318", "FIRE_YEAR": 2023, "PRE_FIRE_IMAGE": "S2A_10UGV_20230701_0_L2A", "PRE_FIRE_IMAGE_DATE": "2023-07-01", "POST_FIRE_IMAGE": "S2A_11ULQ_20230916_0_L2A", "POST_FIRE_IMAGE_DATE": "2023-09-16", "COMMENTS": "", "FIRE_STATUS": "", "BURN_SEVERITY_RATING": "Low", "AREA_HA": 0.50221711906257827, "FEATURE_AREA_SQM": 5022.1711906257824, "FEATURE_LENGTH_M": 689.26252308361541 }, "geometry": { "type": "Polygon", "coordinates": [ [ [ -119.481537266781686, 48.879044875038502 ], [ -119.481549747025852, 48.878867159796371 ], [ -119.481822030560622, 48.878875477869741 ], [ -119.48184095495472, 48.878605975540992 ], [ -119.481978221173364, 48.878610168666938 ], [ -119.481990836790203, 48.878430500411341 ], [ -119.481718555621242, 48.878422182792292 ], [ -119.481724863868564, 48.878332348687586 ], [ -119.481587598447476, 48.878328155277607 ], [ -119.48160021533819, 48.878148487088581 ], [ -119.48173748026953, 48.878152680472205 ], [ -119.481750096545582, 48.877973012248752 ], [ -119.48215738958352, 48.877985453873293 ], [ -119.482163696948135, 48.877895619719489 ], [ -119.482300961270681, 48.877899812416395 ], [ -119.482288346999979, 48.87807948074844 ], [ -119.482560626475575, 48.878087796979138 ], [ -119.482548013051471, 48.878267465355449 ], [ -119.482410747686529, 48.878263272929388 ], [ -119.482417054659066, 48.87817343875539 ], [ -119.482282039817804, 48.878169314911482 ], [ -119.482275732604421, 48.878259149072463 ], [ -119.482138467302391, 48.878254956322749 ], [ -119.482119544740215, 48.878524458754271 ], [ -119.482256810776917, 48.878528651543391 ], [ -119.482244196069104, 48.87870831984727 ], [ -119.482651495293197, 48.878720759864407 ], [ -119.482683028195467, 48.878271588894023 ], [ -119.482724844147157, 48.878272865978843 ], [ -119.482836552741389, 48.878636384747757 ], [ -119.482795068343464, 48.878635117829582 ], [ -119.482783637890577, 48.87879794333648 ], [ -119.482090422713625, 48.87893921794111 ], [ -119.482100621897075, 48.87879396116746 ], [ -119.481965605431611, 48.878789836914493 ], [ -119.481953151950421, 48.878967192560694 ], [ -119.481951613788922, 48.878967506023777 ], [ -119.481815859501793, 48.878963359060023 ], [ -119.48181359318535, 48.878995633239633 ], [ -119.481567437512254, 48.879045796770171 ], [ -119.481537266781686, 48.879044875038502 ] ] ] } },
{ "type": "Feature", "properties": { "FIRE_NUMBER": "K52318", "FIRE_YEAR": 2023, "PRE_FIRE_IMAGE": "S2A_10UGV_20230701_0_L2A", "PRE_FIRE_IMAGE_DATE": "2023-07-01", "POST_FIRE_IMAGE": "S2A_11ULQ_20230916_0_L2A", "POST_FIRE_IMAGE_DATE": "2023-09-16", "COMMENTS": "", "FIRE_STATUS": "", "BURN_SEVERITY_RATING": "Unburned", "AREA_HA": 0.049450624735950598, "FEATURE_AREA_SQM": 494.50624735950595, "FEATURE_LENGTH_M": 134.71814262476178 }, "geometry": { "type": "Polygon", "coordinates": [ [ [ -119.478958008758667, 48.878876021405709 ], [ -119.478820742258193, 48.878871824667748 ], [ -119.478814428690512, 48.878961658483526 ], [ -119.478679412250642, 48.878957530372396 ], [ -119.478673098410852, 48.879047364173232 ], [ -119.478263548000456, 48.879034841231316 ], [ -119.478268290504204, 48.878967372391678 ], [ -119.478303138347542, 48.878960850989067 ], [ -119.478960695315919, 48.878837793535261 ], [ -119.478958008758667, 48.878876021405709 ] ] ] } },
{ "type": "Feature", "properties": { "FIRE_NUMBER": "K52318", "FIRE_YEAR": 2023, "PRE_FIRE_IMAGE": "S2A_10UGV_20230701_0_L2A", "PRE_FIRE_IMAGE_DATE": "2023-07-01", "POST_FIRE_IMAGE": "S2A_11ULQ_20230916_0_L2A", "POST_FIRE_IMAGE_DATE": "2023-09-16", "COMMENTS": "", "FIRE_STATUS": "", "BURN_SEVERITY_RATING": "Unburned", "AREA_HA": 0.091341613132045127, "FEATURE_AREA_SQM": 913.41613132045131, "FEATURE_LENGTH_M": 162.36096551671298 }, "geometry": { "type": "Polygon", "coordinates": [ [ [ -119.479781032227365, 48.878813111064304 ], [ -119.479916048438469, 48.878817237876547 ], [ -119.479909874053291, 48.878905118887715 ], [ -119.479637590917179, 48.878896796295493 ], [ -119.479093025019623, 48.878880149185569 ], [ -119.479097804783038, 48.878812133808317 ], [ -119.479689408099532, 48.878701414236012 ], [ -119.479793343420695, 48.87863788922774 ], [ -119.479781032227365, 48.878813111064304 ] ] ] } },
{ "type": "Feature", "properties": { "FIRE_NUMBER": "K52318", "FIRE_YEAR": 2023, "PRE_FIRE_IMAGE": "S2A_10UGV_20230701_0_L2A", "PRE_FIRE_IMAGE_DATE": "2023-07-01", "POST_FIRE_IMAGE": "S2A_11ULQ_20230916_0_L2A", "POST_FIRE_IMAGE_DATE": "2023-09-16", "COMMENTS": "", "FIRE_STATUS": "", "BURN_SEVERITY_RATING": "Unburned", "AREA_HA": 0.039489498262179852, "FEATURE_AREA_SQM": 394.89498262179853, "FEATURE_LENGTH_M": 107.5822964207082 }, "geometry": { "type": "Polygon", "coordinates": [ [ [ -119.480065937555921, 48.878641765429897 ], [ -119.48007224881141, 48.878551931488254 ], [ -119.479940565894765, 48.878547906741154 ], [ -119.480219827991078, 48.878377219996338 ], [ -119.480207264361823, 48.878556057943278 ], [ -119.480344530202899, 48.878560253010818 ], [ -119.48033821943315, 48.878650086978659 ], [ -119.480065937555921, 48.878641765429897 ] ] ] } },
{ "type": "Feature", "properties": { "FIRE_NUMBER": "K52318", "FIRE_YEAR": 2023, "PRE_FIRE_IMAGE": "S2A_10UGV_20230701_0_L2A", "PRE_FIRE_IMAGE_DATE": "2023-07-01", "POST_FIRE_IMAGE": "S2A_11ULQ_20230916_0_L2A", "POST_FIRE_IMAGE_DATE": "2023-09-16", "COMMENTS": "", "FIRE_STATUS": "", "BURN_SEVERITY_RATING": "Unburned", "AREA_HA": 1.6269460146915669, "FEATURE_AREA_SQM": 16269.460146915668, "FEATURE_LENGTH_M": 1415.9262887065599 }, "geometry": { "type": "Polygon", "coordinates": [ [ [ -119.481592521266435, 48.880216911548494 ], [ -119.481605138977685, 48.880037243417576 ], [ -119.481332849200342, 48.880028924686549 ], [ -119.481339158494904, 48.879939090644235 ], [ -119.481201888734091, 48.879934896673518 ], [ -119.481214507719287, 48.879755228609284 ], [ -119.481351776990323, 48.879759422553562 ], [ -119.481364395360785, 48.879579754454817 ], [ -119.481092108137176, 48.879571435212611 ], [ -119.481098417761316, 48.879481601186413 ], [ -119.480961149287921, 48.879477406958038 ], [ -119.48098007870766, 48.879207904906835 ], [ -119.480845061290665, 48.8792037793161 ], [ -119.480826131148291, 48.879473281328444 ], [ -119.480688862737821, 48.879469086776467 ], [ -119.480739207275974, 48.87875236772198 ], [ -119.480604191120008, 48.87874824187756 ], [ -119.480585397170032, 48.879015790928769 ], [ -119.480313113235496, 48.879007469917823 ], [ -119.480325597799975, 48.878829754908267 ], [ -119.480460614134884, 48.878833881084113 ], [ -119.48046692472623, 48.878744047107219 ], [ -119.480331908632195, 48.878739920944518 ], [ -119.48033821943315, 48.878650086978659 ], [ -119.481017799539188, 48.878670853663735 ], [ -119.481024109096566, 48.878581019630609 ], [ -119.480889093360403, 48.878576894130397 ], [ -119.48089540312742, 48.878487060108235 ], [ -119.481030418622694, 48.878491185595479 ], [ -119.481049347013723, 48.878221683477925 ], [ -119.480914332241042, 48.878217558029462 ], [ -119.480908022567746, 48.878307392057778 ], [ -119.480770757335421, 48.878303197677013 ], [ -119.480764447386022, 48.878393031689988 ], [ -119.48062943219351, 48.878388905897481 ], [ -119.48061681171923, 48.878568573891599 ], [ -119.480479545815228, 48.87856437914764 ], [ -119.480485856312853, 48.878474545164778 ], [ -119.480350840941384, 48.87847041904093 ], [ -119.480357151648647, 48.878380585069024 ], [ -119.48022112401253, 48.878376427855173 ], [ -119.480637346496721, 48.878122026300304 ], [ -119.481201289984142, 48.878016882472906 ], [ -119.48119292122044, 48.878136043465496 ], [ -119.481465200682578, 48.878144362289746 ], [ -119.481477773091541, 48.877965332617457 ], [ -119.482567882290269, 48.877762075305384 ], [ -119.482724844147157, 48.878272865978843 ], [ -119.482683028195467, 48.878271588894023 ], [ -119.482548013051471, 48.878267465355449 ], [ -119.482560626475575, 48.878087796979138 ], [ -119.482288346999979, 48.87807948074844 ], [ -119.482300961270681, 48.877899812416395 ], [ -119.482163696948135, 48.877895619719489 ], [ -119.48215738958352, 48.877985453873293 ], [ -119.481750096545582, 48.877973012248752 ], [ -119.48173748026953, 48.878152680472205 ], [ -119.48160021533819, 48.878148487088581 ], [ -119.481587598447476, 48.878328155277607 ], [ -119.481724863868564, 48.878332348687586 ], [ -119.481718555621242, 48.878422182792292 ], [ -119.481990836790203, 48.878430500411341 ], [ -119.481978221173364, 48.878610168666938 ], [ -119.48184095495472, 48.878605975540992 ], [ -119.481822030560622, 48.878875477869741 ], [ -119.481549747025852, 48.878867159796371 ], [ -119.481537266781686, 48.879044875038502 ], [ -119.481567437512254, 48.879045796770171 ], [ -119.481456786726952, 48.879068345832835 ], [ -119.481955467695897, 48.879762550696483 ], [ -119.481945413034339, 48.879762984737191 ], [ -119.481632955249083, 48.880218146801305 ], [ -119.481592521266435, 48.880216911548494 ] ] ] } },
{ "type": "Feature", "properties": { "FIRE_NUMBER": "K52318", "FIRE_YEAR": 2023, "PRE_FIRE_IMAGE": "S2A_10UGV_20230701_0_L2A", "PRE_FIRE_IMAGE_DATE": "2023-07-01", "POST_FIRE_IMAGE": "S2A_11ULQ_20230916_0_L2A", "POST_FIRE_IMAGE_DATE": "2023-09-16", "COMMENTS": "", "FIRE_STATUS": "", "BURN_SEVERITY_RATING": "Unburned", "AREA_HA": 0.01780316592439166, "FEATURE_AREA_SQM": 178.03165924391661, "FEATURE_LENGTH_M": 56.342678401206221 }, "geometry": { "type": "Polygon", "coordinates": [ [ [ -119.481965605431611, 48.878789836914493 ], [ -119.482100621897075, 48.87879396116746 ], [ -119.482090422713625, 48.87893921794111 ], [ -119.481953151950421, 48.878967192560694 ], [ -119.481965605431611, 48.878789836914493 ] ] ] } }
]
}
